API VERSION: 1.2
API SOURCE: NASA/JPL Horizons API

*******************************************************************************
 Revised: January 26, 2022             Saturn                               699
 
 PHYSICAL DATA:
  Mass x10^26 (kg)      = 5.6834          Density (g/cm^3)       =  0.687+-.001
  Equat. radius (1 bar) = 60268+-4 km     Polar radius (km)      = 54364+-10
  Vol. Mean Radius (km) = 58232+-6        Flattening             =  0.09796
  Geometric Albedo      = 0.47            Rocky core mass (Mc/M) =  0.1027
  Sid. rot. period (III)= 10h 39m 22.4s   Sid. rot. rate (rad/s) =  0.000163785 
  Mean solar day, hrs   =~10.656         
  GM (km^3/s^2)         = 37931206.234    GM 1-sigma (km^3/s^2)  = +- 98
  Equ. grav, ge (m/s^2) = 10.44           Pol. grav, gp (m/s^2)  = 12.14+-0.01
  Vis. magnitude V(1,0) = -8.88          
  Vis. mag. (opposition)= +0.67           Obliquity to orbit     = 26.73 deg
  Sidereal orbit period = 29.447498 yr    Sidereal orbit period  = 10755.698 d
  Mean daily motion     = 0.0334979 deg/d Mean orbit velocity    =  9.68 km/s
  Atmos. temp. (1 bar)  = 134+-4 K        Escape speed, km/s    =  35.5          
  Aroche(ice)/Rp        =  2.71           Hill's sphere rad. Rp  = 1100
                                 Perihelion  Aphelion    Mean
  Solar Constant (W/m^2)         16.8        13.6        15.1
  Maximum Planetary IR (W/m^2)    4.7         4.5         4.6
  Minimum Planetary IR (W/m^2)    4.7         4.5         4.6
*******************************************************************************


*******************************************************************************
Ephemeris / API_USER Thu Feb 19 13:06:54 2026 Pasadena, USA      / Horizons
*******************************************************************************
Target body name: Saturn (699)                    {source: sat441l}
Center body name: Earth (399)                     {source: DE441}
Center-site name: BODY CENTER
*******************************************************************************
Start time      : A.D. 2032-Sep-28 02:07:00.0000 TDB
Stop  time      : A.D. 2032-Oct-01 02:07:00.0000 TDB
Step-size       : 60 minutes
*******************************************************************************
Center geodetic : 0.0, 0.0, 0.0                   {E-lon(deg),Lat(deg),Alt(km)}
Center cylindric: 0.0, 0.0, 0.0                   {E-lon(deg),Dxy(km),Dz(km)}
Center radii    : 6378.137, 6378.137, 6356.752 km {Equator_a, b, pole_c}
Output units    : AU-D
Calendar mode   : Mixed Julian/Gregorian
Output type     : GEOMETRIC cartesian states
Output format   : 3 (position, velocity, LT, range, range-rate)
EOP file        : eop.260218.p260517
EOP coverage    : DATA-BASED 1962-JAN-20 TO 2026-FEB-18. PREDICTS-> 2026-MAY-16
Reference frame : Ecliptic of J2000.0
*******************************************************************************
JDTDB
   X     Y     Z
   VX    VY    VZ
   LT    RG    RR
*******************************************************************************
$$SOE
2463504.546527778 = A.D. 2032-Sep-29 01:07:00.0000 TDB 
 X =-9.931364799658876E-01 Y = 8.909299524048453E+00 Z =-1.568334346641218E-01
 VX=-3.803597743923070E-03 VY=-1.705469019264209E-02 VZ= 2.351731595785976E-04
 LT= 5.178245312069869E-02 RG= 8.965853824554445E+00 RR=-1.652990751979124E-02
2463504.588194444 = A.D. 2032-Sep-29 02:07:00.0000 TDB 
 X =-9.932947080944398E-01 Y = 8.908588934649554E+00 Z =-1.568236356461943E-01
 VX=-3.791352473208393E-03 VY=-1.705359943708990E-02 VZ= 2.351796990949749E-04
 LT= 5.177847523965521E-02 RG= 8.965165075802352E+00 RR=-1.653003122368336E-02
2463504.629861111 = A.D. 2032-Sep-29 03:07:00.0000 TDB 
 X =-9.934524260094556E-01 Y = 8.907878390888477E+00 Z =-1.568138363559865E-01
 VX=-3.779107500353363E-03 VY=-1.705249957746539E-02 VZ= 2.351862299048764E-04
 LT= 5.177449732982272E-02 RG= 8.964476322065591E+00 RR=-1.653014678309589E-02
2463504.671527778 = A.D. 2032-Sep-29 04:07:00.0000 TDB 
 X =-9.936096337241425E-01 Y = 8.907167893144470E+00 Z =-1.568040367937322E-01
 VX=-3.766862863911303E-03 VY=-1.705139061927653E-02 VZ= 2.351927586888065E-04
 LT= 5.177051939316132E-02 RG= 8.963787563683551E+00 RR=-1.653025419759968E-02
2463504.713194444 = A.D. 2032-Sep-29 05:07:00.0000 TDB 
 X =-9.937663312533050E-01 Y = 8.906457441796409E+00 Z =-1.567942369593174E-01
 VX=-3.754618600957929E-03 VY=-1.705027257470976E-02 VZ= 2.351992955957465E-04
 LT= 5.176654143163045E-02 RG= 8.963098800995500E+00 RR=-1.653035347362030E-02
2463504.754861111 = A.D. 2032-Sep-29 06:07:00.0000 TDB 
 X =-9.939225186131802E-01 Y = 8.905747037222532E+00 Z =-1.567844368521446E-01
 VX=-3.742374742720276E-03 VY=-1.704914546148669E-02 VZ= 2.352058532921925E-04
 LT= 5.176256344718716E-02 RG= 8.962410034340280E+00 RR=-1.653044462377027E-02
2463504.796527778 = A.D. 2032-Sep-29 07:07:00.0000 TDB 
 X =-9.940781958211516E-01 Y = 8.905036679800270E+00 Z =-1.567746364710578E-01
 VX=-3.730131312853838E-03 VY=-1.704800930118612E-02 VZ= 2.352124459166518E-04
 LT= 5.175858544178494E-02 RG= 8.961721264056134E+00 RR=-1.653052766535531E-02
2463504.838194444 = A.D. 2032-Sep-29 08:07:00.0000 TDB 
 X =-9.942333628954249E-01 Y = 8.904326369906094E+00 Z =-1.567648358142968E-01
 VX=-3.717888327226754E-03 VY=-1.704686411748338E-02 VZ= 2.352190881025198E-04
 LT= 5.175460741737267E-02 RG= 8.961032490480507E+00 RR=-1.653060261863291E-02
2463504.879861111 = A.D. 2032-Sep-29 09:07:00.0000 TDB 
 X =-9.943880198547133E-01 Y = 8.903616107915470E+00 Z =-1.567550348794949E-01
 VX=-3.705645794460209E-03 VY=-1.704570993454995E-02 VZ= 2.352257941465333E-04
 LT= 5.175062937589421E-02 RG= 8.960343713949953E+00 RR=-1.653066950514872E-02
2463504.921527778 = A.D. 2032-Sep-29 10:07:00.0000 TDB 
 X =-9.945421667179526E-01 Y = 8.902905894202878E+00 Z =-1.567452336637121E-01
 VX=-3.693403716767961E-03 VY=-1.704454677571382E-02 VZ= 2.352325773436538E-04
 LT= 5.174665131928820E-02 RG= 8.959654934800149E+00 RR=-1.653072834630159E-02
2463504.963194444 = A.D. 2032-Sep-29 11:07:00.0000 TDB 
 X =-9.946958035040541E-01 Y = 8.902195729141859E+00 Z =-1.567354321634804E-01
 VX=-3.681162090850568E-03 VY=-1.704337466239248E-02 VZ= 2.352394494766078E-04
 LT= 5.174267324948828E-02 RG= 8.958966153365889E+00 RR=-1.653077916217626E-02
2463505.004861111 = A.D. 2032-Sep-29 12:07:00.0000 TDB 
 X =-9.948489302316895E-01 Y = 8.901485613105120E+00 Z =-1.567256303748820E-01
 VX=-3.668920908744684E-03 VY=-1.704219361326357E-02 VZ= 2.352464204331118E-04
 LT= 5.173869516842351E-02 RG= 8.958277369981182E+00 RR=-1.653082197061902E-02
2463505.046527778 = A.D. 2032-Sep-29 13:07:00.0000 TDB 
 X =-9.950015469191172E-01 Y = 8.900775546464649E+00 Z =-1.567158282936302E-01
 VX=-3.656680158618241E-03 VY=-1.704100364362123E-02 VZ= 2.352534979214016E-04
 LT= 5.173471707801899E-02 RG= 8.957588584979346E+00 RR=-1.653085678650561E-02
2463505.088194444 = A.D. 2032-Sep-29 14:07:00.0000 TDB 
 X =-9.951536535840344E-01 Y = 8.900065529591886E+00 Z =-1.567060259151674E-01
 VX=-3.644439825549416E-03 VY=-1.703980476487059E-02 VZ= 2.352606872605721E-04
 LT= 5.173073898019664E-02 RG= 8.956899798693154E+00 RR=-1.653088362114932E-02
2463505.129861111 = A.D. 2032-Sep-29 15:07:00.0000 TDB 
 X =-9.953052502434672E-01 Y = 8.899355562857879E+00 Z =-1.566962232347644E-01
 VX=-3.632199892342215E-03 VY=-1.703859698412976E-02 VZ= 2.352679912325331E-04
 LT= 5.172676087687621E-02 RG= 8.956211011454995E+00 RR=-1.653090248181284E-02
2463505.171527778 = A.D. 2032-Sep-29 16:07:00.0000 TDB 
 X =-9.954563369136923E-01 Y = 8.898645646633478E+00 Z =-1.566864202476358E-01
 VX=-3.619960340423275E-03 VY=-1.703738030393073E-02 VZ= 2.352754099940100E-04
 LT= 5.172278276997614E-02 RG= 8.955522223597047E+00 RR=-1.653091337131017E-02
2463505.213194444 = A.D. 2032-Sep-29 17:07:00.0000 TDB 
 X =-9.956069136102011E-01 Y = 8.897935781289519E+00 Z =-1.566766169490383E-01
 VX=-3.607721150841762E-03 VY=-1.703615472203277E-02 VZ= 2.352829410573284E-04
 LT= 5.171880466141483E-02 RG= 8.954833435451457E+00 RR=-1.653091628771001E-02
2463505.254861111 = A.D. 2032-Sep-29 18:07:00.0000 TDB 
 X =-9.957569803477075E-01 Y = 8.897225967197040E+00 Z =-1.566668133343905E-01
 VX=-3.595482305364154E-03 VY=-1.703492023137856E-02 VZ= 2.352905793558976E-04
 LT= 5.171482655311165E-02 RG= 8.954144647350567E+00 RR=-1.653091122417163E-02
2463505.296527778 = A.D. 2032-Sep-29 19:07:00.0000 TDB 
 X =-9.959065371401988E-01 Y = 8.896516204727464E+00 Z =-1.566570093993716E-01
 VX=-3.583243787624404E-03 VY=-1.703367682023257E-02 VZ= 2.352983174127854E-04
 LT= 5.171084844698830E-02 RG= 8.953455859627102E+00 RR=-1.653089816895735E-02
2463505.338194444 = A.D. 2032-Sep-29 20:07:00.0000 TDB 
 X =-9.960555840010406E-01 Y = 8.895806494252803E+00 Z =-1.566472051400196E-01
 VX=-3.571005584262693E-03 VY=-1.703242447253962E-02 VZ= 2.353061456281365E-04
 LT= 5.170687034496984E-02 RG= 8.952767072614376E+00 RR=-1.653087710566691E-02
2463505.379861111 = A.D. 2032-Sep-29 21:07:00.0000 TDB 
 X =-9.962041209431221E-01 Y = 8.895096836145813E+00 Z =-1.566374005528070E-01
 VX=-3.558767685966290E-03 VY=-1.703116316852954E-02 VZ= 2.353140526930818E-04
 LT= 5.170289224898577E-02 RG= 8.952078286646472E+00 RR=-1.653084801372928E-02
2463505.421527778 = A.D. 2032-Sep-29 22:07:00.0000 TDB 
 X =-9.963521479790443E-01 Y = 8.894387230780131E+00 Z =-1.566275956347063E-01
 VX=-3.546530088317294E-03 VY=-1.702989288557150E-02 VZ= 2.353220261248881E-04
 LT= 5.169891416097100E-02 RG= 8.951389502058406E+00 RR=-1.653081086916596E-02
2463505.463194444 = A.D. 2032-Sep-29 23:07:00.0000 TDB 
 X =-9.964996651213359E-01 Y = 8.893677678530395E+00 Z =-1.566177903832232E-01
 VX=-3.534292792355450E-03 VY=-1.702861359925060E-02 VZ= 2.353300529014311E-04
 LT= 5.169493608286647E-02 RG= 8.950700719186250E+00 RR=-1.653076564560851E-02
